STARLINK-2624           
1 48358U 21038F   23148.94532450  .00008789  00000+0  60795-3 0  9993
2 48358  53.0539 241.4683 0001523  69.9927 290.1226 15.06414064114511
STARLINK-2628           
1 48359U 21038G   23148.47721104  .00006799  00000+0  47476-3 0  9998
2 48359  53.0529 243.5724 0001124  92.1384 267.9734 15.06411232113858
STARLINK-2622           
1 48360U 21038H   23148.53987302  .00021797  00000+0  14768-2 0  9993
2 48360  53.0529 243.2900 0000974  99.3596 260.7503 15.06421989113865
STARLINK-2591           
1 48361U 21038J   23148.53618760  .00016977  00000+0  11552-2 0  9995
2 48361  53.0536 243.3104 0000838  80.5890 279.5193 15.06421519113861
STARLINK-2578           
1 48362U 21038K   23148.96745137  .00007541  00000+0  52458-3 0  9990
2 48362  53.0531 241.4656 0001841  92.8932 267.2268 15.06402999114528
STARLINK-2626           
1 48363U 21038L   23148.97710996  .00000250  00000+0  35666-4 0  9990
2 48363  53.0539 236.3287 0001135  84.3088 275.8031 15.06400389114595
STARLINK-2611           
1 48364U 21038M   23148.52746031  .00016256  00000+0  11071-2 0  9996
2 48364  53.0535 238.5477 0001102  90.1712 269.9403 15.06419367113930
STARLINK-2608           
1 48365U 21038N   23149.21670417  .00000433  00000+0  47946-4 0  9990
2 48365  53.0530 235.2557 0001506  84.2389 275.8771 15.06396456114636
STARLINK-2631           
1 48366U 21038P   23148.93888043  .00006014  00000+0  42211-3 0  9995
2 48366  53.0533 231.5011 0001135  76.3597 283.7519 15.06413880114656
STARLINK-2643           
1 48367U 21038Q   23148.93519503  .00006878  00000+0  47998-3 0  9993
2 48367  53.0529 231.5164 0001232  77.2565 282.8562 15.06415144114657
STARLINK-2623           
1 48368U 21038R   23148.51503884  .00004087  00000+0  29311-3 0  9992
2 48368  53.0529 233.6820 0001263  88.1932 271.9202 15.06400806114001
STARLINK-2641           
1 48369U 21038S   23148.93151259  .00013929  00000+0  95141-3 0  9993
2 48369  53.0538 231.5373 0001090  88.9917 271.1197 15.06428471114060
STARLINK-2621           
1 48370U 21038T   23148.92782112  .00004716  00000+0  33521-3 0  9990
2 48370  53.0547 231.5515 0001391  81.8343 278.2804 15.06411636114652
STARLINK-2589           
1 48371U 21038U   23148.92413081  .00007899  00000+0  54841-3 0  9990
2 48371  53.0542 231.5687 0001180  73.8513 286.2606 15.06413102114068
STARLINK-2572           
1 48372U 21038V   23149.18583670  .00002010  00000+0  15375-3 0  9991
2 48372  53.0540 230.3918 0001023  85.0694 275.0412 15.06401857114696
STARLINK-2609           
1 48373U 21038W   23148.45233414  .00004711  00000+0  33480-3 0  9996
2 48373  53.0538 233.6858 0001185  97.6336 262.4788 15.06412505113994
STARLINK-2604           
1 48374U 21038X   23148.51404602  .00004805  00000+0  34122-3 0  9991
2 48374  53.0530 233.3960 0000858  97.3013 262.8073 15.06402493114002
STARLINK-2603           
1 48375U 21038Y   23148.51132298  .00005568  00000+0  39236-3 0  9999
2 48375  53.0527 233.4219 0001237  94.3491 265.7639 15.06402962114007
STARLINK-2610           
1 48376U 21038Z   23148.50763385  .00005303  00000+0  37458-3 0  9997
2 48376  53.0530 233.4376 0001253  87.9428 272.1704 15.06403595114000
STARLINK-2499           
1 48377U 21038AA  23148.50393716 -.00000235  00000+0  31208-5 0  9994
2 48377  53.0537 233.4564 0001012  76.9007 283.2095 15.06397820114000
STARLINK-2526           
1 48378U 21038AB  23148.96467551  .00005295  00000+0  37398-3 0  9998
2 48378  53.0532 231.3846 0001332  96.2609 263.8532 15.06414521114664
STARLINK-2612           
1 48379U 21038AC  23148.49656420  .00003221  00000+0  23499-3 0  9996
2 48379  53.0528 233.4879 0001058  77.4729 282.6378 15.06408279114006
STARLINK-2614           
1 48380U 21038AD  23148.91949957  .00001725  00000+0  13466-3 0  9995
2 48380  53.0540 231.5845 0000984  77.7922 282.3177 15.06404347114061
STARLINK-2630           
1 48381U 21038AE  23148.55922954  .00004973  00000+0  35254-3 0  9991
2 48381  53.0525 233.2039 0001345  82.9145 277.1997 15.06398146114012
STARLINK-2585           
1 48382U 21038AF  23148.95362016  .00005253  00000+0  37115-3 0  9993
2 48382  53.0531 231.4369 0001202  91.0708 269.0418 15.06412090114668
STARLINK-2599           
1 48383U 21038AG  23149.21532117  .00011041  00000+0  75835-3 0  9998
2 48383  53.0534 230.2593 0000831  87.4398 272.6686 15.06427728114693
STARLINK-2601           
1 48384U 21038AH  23149.21163902  .00017461  00000+0  11873-2 0  9994
2 48384  53.0531 230.2754 0001237  85.0110 275.1020 15.06428196114697
STARLINK-2598           
1 48385U 21038AJ  23148.94255897  .00005323  00000+0  37585-3 0  9992
2 48385  53.0515 231.4832 0000956  89.2955 270.8143 15.06408130114650
STARLINK-2606           
1 48386U 21038AK  23148.93012103  .00003133  00000+0  22908-3 0  9993
2 48386  53.0539 226.5493 0001240  98.7190 261.3939 15.06406309114720
STARLINK-2600           
1 48387U 21038AL  23148.49517959 -.00000889  00000+0 -40787-4 0  9997
2 48387  53.0525 228.4595 0001118  89.8986 270.2131 15.06400686114071
