OBJECT_NAME,OBJECT_ID,EPOCH,MEAN_MOTION,ECCENTRICITY,INCLINATION,RA_OF_ASC_NODE,ARG_OF_PERICENTER,MEAN_ANOMALY,EPHEMERIS_TYPE,CLASSIFICATION_TYPE,NORAD_CAT_ID,ELEMENT_SET_NO,REV_AT_EPOCH,BSTAR,MEAN_MOTION_DOT,MEAN_MOTION_DDOT
STARLINK-2624,2021-038F,2023-05-28T22:41:16.036800,15.06414064,.0001523,53.0539,241.4683,69.9927,290.1226,0,U,48358,999,11451,.60795E-3,.8789E-4,0
STARLINK-2628,2021-038G,2023-05-28T11:27:11.033856,15.06411232,.0001124,53.0529,243.5724,92.1384,267.9734,0,U,48359,999,11385,.47476E-3,.6799E-4,0
STARLINK-2622,2021-038H,2023-05-28T12:57:25.028928,15.06421989,.0000974,53.0529,243.2900,99.3596,260.7503,0,U,48360,999,11386,.14768E-2,.21797E-3,0
STARLINK-2591,2021-038J,2023-05-28T12:52:06.608640,15.06421519,.0000838,53.0536,243.3104,80.5890,279.5193,0,U,48361,999,11386,.11552E-2,.16977E-3,0
STARLINK-2578,2021-038K,2023-05-28T23:13:07.798368,15.06402999,.0001841,53.0531,241.4656,92.8932,267.2268,0,U,48362,999,11452,.52458E-3,.7541E-4,0
STARLINK-2626,2021-038L,2023-05-28T23:27:02.300544,15.06400389,.0001135,53.0539,236.3287,84.3088,275.8031,0,U,48363,999,11459,.35666E-4,.25E-5,0
STARLINK-2611,2021-038M,2023-05-28T12:39:32.570784,15.06419367,.0001102,53.0535,238.5477,90.1712,269.9403,0,U,48364,999,11393,.11071E-2,.16256E-3,0
STARLINK-2608,2021-038N,2023-05-29T05:12:03.240288,15.06396456,.0001506,53.0530,235.2557,84.2389,275.8771,0,U,48365,999,11463,.47946E-4,.433E-5,0
STARLINK-2631,2021-038P,2023-05-28T22:31:59.269152,15.06413880,.0001135,53.0533,231.5011,76.3597,283.7519,0,U,48366,999,11465,.42211E-3,.6014E-4,0
STARLINK-2643,2021-038Q,2023-05-28T22:26:40.850592,15.06415144,.0001232,53.0529,231.5164,77.2565,282.8562,0,U,48367,999,11465,.47998E-3,.6878E-4,0
STARLINK-2623,2021-038R,2023-05-28T12:21:39.355776,15.06400806,.0001263,53.0529,233.6820,88.1932,271.9202,0,U,48368,999,11400,.29311E-3,.4087E-4,0
STARLINK-2641,2021-038S,2023-05-28T22:21:22.687776,15.06428471,.000109,53.0538,231.5373,88.9917,271.1197,0,U,48369,999,11406,.95141E-3,.13929E-3,0
STARLINK-2621,2021-038T,2023-05-28T22:16:03.744768,15.06411636,.0001391,53.0547,231.5515,81.8343,278.2804,0,U,48370,999,11465,.33521E-3,.4716E-4,0
STARLINK-2589,2021-038U,2023-05-28T22:10:44.901984,15.06413102,.000118,53.0542,231.5687,73.8513,286.2606,0,U,48371,999,11406,.54841E-3,.7899E-4,0
STARLINK-2572,2021-038V,2023-05-29T04:27:36.290880,15.06401857,.0001023,53.0540,230.3918,85.0694,275.0412,0,U,48372,999,11469,.15375E-3,.201E-4,0
STARLINK-2609,2021-038W,2023-05-28T10:51:21.669696,15.06412505,.0001185,53.0538,233.6858,97.6336,262.4788,0,U,48373,999,11399,.3348E-3,.4711E-4,0
STARLINK-2604,2021-038X,2023-05-28T12:20:13.576128,15.06402493,.0000858,53.0530,233.3960,97.3013,262.8073,0,U,48374,999,11400,.34122E-3,.4805E-4,0
STARLINK-2603,2021-038Y,2023-05-28T12:16:18.305472,15.06402962,.0001237,53.0527,233.4219,94.3491,265.7639,0,U,48375,999,11400,.39236E-3,.5568E-4,0
STARLINK-2610,2021-038Z,2023-05-28T12:10:59.564640,15.06403595,.0001253,53.0530,233.4376,87.9428,272.1704,0,U,48376,999,11400,.37458E-3,.5303E-4,0
STARLINK-2499,2021-038AA,2023-05-28T12:05:40.170624,15.06397820,.0001012,53.0537,233.4564,76.9007,283.2095,0,U,48377,999,11400,.31208E-5,-.235E-5,0
STARLINK-2526,2021-038AB,2023-05-28T23:09:07.964064,15.06414521,.0001332,53.0532,231.3846,96.2609,263.8532,0,U,48378,999,11466,.37398E-3,.5295E-4,0
STARLINK-2612,2021-038AC,2023-05-28T11:55:03.146880,15.06408279,.0001058,53.0528,233.4879,77.4729,282.6378,0,U,48379,999,11400,.23499E-3,.3221E-4,0
STARLINK-2614,2021-038AD,2023-05-28T22:04:04.762848,15.06404347,.0000984,53.0540,231.5845,77.7922,282.3177,0,U,48380,999,11406,.13466E-3,.1725E-4,0
STARLINK-2630,2021-038AE,2023-05-28T13:25:17.432256,15.06398146,.0001345,53.0525,233.2039,82.9145,277.1997,0,U,48381,999,11401,.35254E-3,.4973E-4,0
STARLINK-2585,2021-038AF,2023-05-28T22:53:12.781824,15.06412090,.0001202,53.0531,231.4369,91.0708,269.0418,0,U,48382,999,11466,.37115E-3,.5253E-4,0
STARLINK-2599,2021-038AG,2023-05-29T05:10:03.749088,15.06427728,.0000831,53.0534,230.2593,87.4398,272.6686,0,U,48383,999,11469,.75835E-3,.11041E-3,0
STARLINK-2601,2021-038AH,2023-05-29T05:04:45.611328,15.06428196,.0001237,53.0531,230.2754,85.0110,275.1020,0,U,48384,999,11469,.11873E-2,.17461E-3,0
STARLINK-2598,2021-038AJ,2023-05-28T22:37:17.095008,15.06408130,.0000956,53.0515,231.4832,89.2955,270.8143,0,U,48385,999,11465,.37585E-3,.5323E-4,0
STARLINK-2606,2021-038AK,2023-05-28T22:19:22.456992,15.06406309,.000124,53.0539,226.5493,98.7190,261.3939,0,U,48386,999,11472,.22908E-3,.3133E-4,0
STARLINK-2600,2021-038AL,2023-05-28T11:53:03.516576,15.06400686,.0001118,53.0525,228.4595,89.8986,270.2131,0,U,48387,999,11407,-.40787E-4,-.889E-5,0
